{
  "type": "FeatureCollection",
  "features": [
    {
      "type": "Feature",
      "properties": {
        "norad_id": 39766,
        "name": "ALOS-2",
        "group": "resource",
        "lat": 81.68182966127289,
        "lon": -0.013046414198197505,
        "alt_km": 622.6203822251464,
        "timestamp": "2025-12-03T06:58:42.898370+00:00",
        "meta_object_name": "ALOS-2",
        "meta_object_id": "2014-029A",
        "meta_epoch": "2025-12-02T20:50:43.577088",
        "meta_mean_motion": 14.79446158,
        "meta_eccentricity": 0.0001505,
        "meta_inclination": 97.9236,
        "meta_ra_of_asc_node": 71.8555,
        "meta_arg_of_pericenter": 108.9474,
        "meta_mean_anomaly": 251.19,
        "meta_ephemeris_type": 0,
        "meta_classification_type": "U",
        "meta_norad_cat_id": 39766,
        "meta_element_set_no": 999,
        "meta_rev_at_epoch": 62255,
        "meta_bstar": 0.00037603,
        "meta_mean_motion_dot": 2.756e-05,
        "meta_mean_motion_ddot": 0,
        "tle_line1": "1 39766U 14029A   25336.86855992  .00002756  00000+0  37603-3 0  9999",
        "tle_line2": "2 39766  97.9236  71.8555 0001505 108.9474 251.1900 14.79446158622551"
      },
      "geometry": {
        "type": "Point",
        "coordinates": [
          -0.013046414198197505,
          81.68182966127289
        ]
      }
    },
    {
      "type": "Feature",
      "properties": {
        "norad_id": 40010,
        "name": "KAZEOSAT 2",
        "group": "resource",
        "lat": 15.385195126355635,
        "lon": 4.184465933854847,
        "alt_km": 612.9173953696227,
        "timestamp": "2025-12-03T06:58:42.898380+00:00",
        "meta_object_name": "KAZEOSAT 2",
        "meta_object_id": "2014-033A",
        "meta_epoch": "2025-12-02T20:32:17.282112",
        "meta_mean_motion": 14.85141248,
        "meta_eccentricity": 0.0007222,
        "meta_inclination": 97.5512,
        "meta_ra_of_asc_node": 181.6802,
        "meta_arg_of_pericenter": 243.7828,
        "meta_mean_anomaly": 116.2646,
        "meta_ephemeris_type": 0,
        "meta_classification_type": "U",
        "meta_norad_cat_id": 40010,
        "meta_element_set_no": 999,
        "meta_rev_at_epoch": 61981,
        "meta_bstar": 0.00012835,
        "meta_mean_motion_dot": 1.049e-05,
        "meta_mean_motion_ddot": 0,
        "tle_line1": "1 40010U 14033A   25336.85575558  .00001049  00000+0  12835-3 0  9998",
        "tle_line2": "2 40010  97.5512 181.6802 0007222 243.7828 116.2646 14.85141248619818"
      },
      "geometry": {
        "type": "Point",
        "coordinates": [
          4.184465933854847,
          15.385195126355635
        ]
      }
    },
    {
      "type": "Feature",
      "properties": {
        "norad_id": 40011,
        "name": "HODOYOSHI-4",
        "group": "resource",
        "lat": 5.912465901452884,
        "lon": -12.573797353416436,
        "alt_km": 600.1003569369677,
        "timestamp": "2025-12-03T06:58:42.898392+00:00",
        "meta_object_name": "HODOYOSHI-4",
        "meta_object_id": "2014-033B",
        "meta_epoch": "2025-12-02T20:30:36.129312",
        "meta_mean_motion": 14.87421712,
        "meta_eccentricity": 0.0022644,
        "meta_inclination": 97.5416,
        "meta_ra_of_asc_node": 166.2256,
        "meta_arg_of_pericenter": 234.5599,
        "meta_mean_anomaly": 125.3504,
        "meta_ephemeris_type": 0,
        "meta_classification_type": "U",
        "meta_norad_cat_id": 40011,
        "meta_element_set_no": 999,
        "meta_rev_at_epoch": 61961,
        "meta_bstar": 0.00026952,
        "meta_mean_motion_dot": 2.398e-05,
        "meta_mean_motion_ddot": 0,
        "tle_line1": "1 40011U 14033B   25336.85458483  .00002398  00000+0  26952-3 0  9999",
        "tle_line2": "2 40011  97.5416 166.2256 0022644 234.5599 125.3504 14.87421712619613"
      },
      "geometry": {
        "type": "Point",
        "coordinates": [
          -12.573797353416436,
          5.912465901452884
        ]
      }
    },
    {
      "type": "Feature",
      "properties": {
        "norad_id": 40013,
        "name": "DEIMOS-2",
        "group": "resource",
        "lat": 34.573635543492884,
        "lon": 38.68671318099681,
        "alt_km": 586.4347465711753,
        "timestamp": "2025-12-03T06:58:42.898402+00:00",
        "meta_object_name": "DEIMOS-2",
        "meta_object_id": "2014-033D",
        "meta_epoch": "2025-12-02T20:40:47.022240",
        "meta_mean_motion": 14.92898412,
        "meta_eccentricity": 7.55e-05,
        "meta_inclination": 97.6073,
        "meta_ra_of_asc_node": 212.987,
        "meta_arg_of_pericenter": 84.3065,
        "meta_mean_anomaly": 275.8241,
        "meta_ephemeris_type": 0,
        "meta_classification_type": "U",
        "meta_norad_cat_id": 40013,
        "meta_element_set_no": 999,
        "meta_rev_at_epoch": 60842,
        "meta_bstar": 0.00032568,
        "meta_mean_motion_dot": 3.322e-05,
        "meta_mean_motion_ddot": 0,
        "tle_line1": "1 40013U 14033D   25336.86165535  .00003322  00000+0  32568-3 0  9993",
        "tle_line2": "2 40013  97.6073 212.9870 0000755  84.3065 275.8241 14.92898412608421"
      },
      "geometry": {
        "type": "Point",
        "coordinates": [
          38.68671318099681,
          34.573635543492884
        ]
      }
    },
    {
      "type": "Feature",
      "properties": {
        "norad_id": 40015,
        "name": "HODOYOSHI-3",
        "group": "resource",
        "lat": -9.942554198182549,
        "lon": -37.80807787857469,
        "alt_km": 618.7221697028899,
        "timestamp": "2025-12-03T06:58:42.898412+00:00",
        "meta_object_name": "HODOYOSHI-3",
        "meta_object_id": "2014-033F",
        "meta_epoch": "2025-12-02T12:19:51.311712",
        "meta_mean_motion": 14.84748207,
        "meta_eccentricity": 0.00318586,
        "meta_inclination": 97.6193,
        "meta_ra_of_asc_node": 142.7937,
        "meta_arg_of_pericenter": 282.9664,
        "meta_mean_anomaly": 76.7994,
        "meta_ephemeris_type": 0,
        "meta_classification_type": "U",
        "meta_norad_cat_id": 40015,
        "meta_element_set_no": 999,
        "meta_rev_at_epoch": 61843,
        "meta_bstar": 0.00027962747,
        "meta_mean_motion_dot": 2.339e-05,
        "meta_mean_motion_ddot": 0,
        "tle_line1": "1 40015U 14033F   25336.51378833  .00002339  00000+0  27963-3 0  9994",
        "tle_line2": "2 40015  97.6193 142.7937 0031858 282.9664  76.7994 14.84748207618431"
      },
      "geometry": {
        "type": "Point",
        "coordinates": [
          -37.80807787857469,
          -9.942554198182549
        ]
      }
    },
    {
      "type": "Feature",
      "properties": {
        "norad_id": 40053,
        "name": "SPOT 7",
        "group": "resource",
        "lat": 9.563380179609132,
        "lon": 38.21006432853557,
        "alt_km": 692.4584804006099,
        "timestamp": "2025-12-03T06:58:42.898423+00:00",
        "meta_object_name": "SPOT 7",
        "meta_object_id": "2014-034A",
        "meta_epoch": "2025-12-02T19:25:35.036256",
        "meta_mean_motion": 14.60712656,
        "meta_eccentricity": 0.0001514,
        "meta_inclination": 98.092,
        "meta_ra_of_asc_node": 39.1133,
        "meta_arg_of_pericenter": 97.3627,
        "meta_mean_anomaly": 262.7746,
        "meta_ephemeris_type": 0,
        "meta_classification_type": "U",
        "meta_norad_cat_id": 40053,
        "meta_element_set_no": 999,
        "meta_rev_at_epoch": 60846,
        "meta_bstar": 0.00017373,
        "meta_mean_motion_dot": 8.01e-06,
        "meta_mean_motion_ddot": 0,
        "tle_line1": "1 40053U 14034A   25336.80943329  .00000801  00000+0  17373-3 0  9993",
        "tle_line2": "2 40053  98.0920  39.1133 0001514  97.3627 262.7746 14.60712656608463"
      },
      "geometry": {
        "type": "Point",
        "coordinates": [
          38.21006432853557,
          9.563380179609132
        ]
      }
    },
    {
      "type": "Feature",
      "properties": {
        "norad_id": 40072,
        "name": "SKYSAT-B",
        "group": "resource",
        "lat": 57.185240403468335,
        "lon": 113.67995124383965,
        "alt_km": 598.9883688783129,
        "timestamp": "2025-12-03T06:58:42.898432+00:00",
        "meta_object_name": "SKYSAT-B",
        "meta_object_id": "2014-037D",
        "meta_epoch": "2025-12-02T19:07:47.699904",
        "meta_mean_motion": 14.87265711,
        "meta_eccentricity": 0.0005337,
        "meta_inclination": 98.3591,
        "meta_ra_of_asc_node": 279.9794,
        "meta_arg_of_pericenter": 181.1149,
        "meta_mean_anomaly": 179.0054,
        "meta_ephemeris_type": 0,
        "meta_classification_type": "U",
        "meta_norad_cat_id": 40072,
        "meta_element_set_no": 999,
        "meta_rev_at_epoch": 61676,
        "meta_bstar": 0.0003336,
        "meta_mean_motion_dot": 2.947e-05,
        "meta_mean_motion_ddot": 0,
        "tle_line1": "1 40072U 14037D   25336.79707986  .00002947  00000+0  33360-3 0  9999",
        "tle_line2": "2 40072  98.3591 279.9794 0005337 181.1149 179.0054 14.87265711616764"
      },
      "geometry": {
        "type": "Point",
        "coordinates": [
          113.67995124383965,
          57.185240403468335
        ]
      }
    }
  ]
}